CCSDS_OMM_VERS = 2.0
CREATION_DATE  = 
ORIGINATOR     = 

OBJECT_NAME    = CYGNUS NG-23
OBJECT_ID      = 2025-208A
CENTER_NAME    = EARTH
REF_FRAME      = TEME
TIME_SYSTEM    = UTC
MEAN_ELEMENT_THEORY = SGP/SGP4

EPOCH          = 2025-12-18T12:55:40.164384
MEAN_MOTION    = 15.49652631
ECCENTRICITY   = .00031724
INCLINATION    = 51.6314
RA_OF_ASC_NODE = 113.7624
ARG_OF_PERICENTER = 267.0099
MEAN_ANOMALY   = 93.0526

EPHEMERIS_TYPE = 0
CLASSIFICATION_TYPE = U
NORAD_CAT_ID   = 65616
ELEMENT_SET_NO = 999
REV_AT_EPOCH   = 22
BSTAR          = .13939492E-3
MEAN_MOTION_DOT = .7413E-4
MEAN_MOTION_DDOT = 0

CCSDS_OMM_VERS = 2.0
CREATION_DATE  = 
ORIGINATOR     = 

OBJECT_NAME    = DRAGONFLY
OBJECT_ID      = 1998-067XH
CENTER_NAME    = EARTH
REF_FRAME      = TEME
TIME_SYSTEM    = UTC
MEAN_ELEMENT_THEORY = SGP/SGP4

EPOCH          = 2025-12-18T14:00:17.390304
MEAN_MOTION    = 15.73865471
ECCENTRICITY   = .0007166
INCLINATION    = 51.6249
RA_OF_ASC_NODE = 105.7955
ARG_OF_PERICENTER = 314.6867
MEAN_ANOMALY   = 45.3548

EPHEMERIS_TYPE = 0
CLASSIFICATION_TYPE = U
NORAD_CAT_ID   = 65729
ELEMENT_SET_NO = 999
REV_AT_EPOCH   = 1408
BSTAR          = .1129306E-2
MEAN_MOTION_DOT = .166206E-2
MEAN_MOTION_DDOT = 0

CCSDS_OMM_VERS = 2.0
CREATION_DATE  = 
ORIGINATOR     = 

OBJECT_NAME    = 1998-067XK
OBJECT_ID      = 1998-067XK
CENTER_NAME    = EARTH
REF_FRAME      = TEME
TIME_SYSTEM    = UTC
MEAN_ELEMENT_THEORY = SGP/SGP4

EPOCH          = 2025-12-18T14:29:38.955840
MEAN_MOTION    = 15.66848038
ECCENTRICITY   = .0004791
INCLINATION    = 51.6292
RA_OF_ASC_NODE = 107.4546
ARG_OF_PERICENTER = 283.3796
MEAN_ANOMALY   = 76.6665

EPHEMERIS_TYPE = 0
CLASSIFICATION_TYPE = U
NORAD_CAT_ID   = 65731
ELEMENT_SET_NO = 999
REV_AT_EPOCH   = 1406
BSTAR          = .83587979E-3
MEAN_MOTION_DOT = .90673E-3
MEAN_MOTION_DDOT = 0

CCSDS_OMM_VERS = 2.0
CREATION_DATE  = 
ORIGINATOR     = 

OBJECT_NAME    = RSP-03
OBJECT_ID      = 1998-067XL
CENTER_NAME    = EARTH
REF_FRAME      = TEME
TIME_SYSTEM    = UTC
MEAN_ELEMENT_THEORY = SGP/SGP4

EPOCH          = 2025-12-18T12:48:30.107520
MEAN_MOTION    = 15.70075461
ECCENTRICITY   = .00056659
INCLINATION    = 51.6263
RA_OF_ASC_NODE = 106.9735
ARG_OF_PERICENTER = 289.7816
MEAN_ANOMALY   = 70.2570

EPHEMERIS_TYPE = 0
CLASSIFICATION_TYPE = U
NORAD_CAT_ID   = 65732
ELEMENT_SET_NO = 999
REV_AT_EPOCH   = 1407
BSTAR          = .97504064E-3
MEAN_MOTION_DOT = .121384E-2
MEAN_MOTION_DDOT = 0

CCSDS_OMM_VERS = 2.0
CREATION_DATE  = 
ORIGINATOR     = 

OBJECT_NAME    = GHS-01
OBJECT_ID      = 1998-067XM
CENTER_NAME    = EARTH
REF_FRAME      = TEME
TIME_SYSTEM    = UTC
MEAN_ELEMENT_THEORY = SGP/SGP4

EPOCH          = 2025-12-18T14:04:56.666208
MEAN_MOTION    = 15.77352830
ECCENTRICITY   = .00079645
INCLINATION    = 51.6277
RA_OF_ASC_NODE = 105.0740
ARG_OF_PERICENTER = 318.3708
MEAN_ANOMALY   = 41.6685

EPHEMERIS_TYPE = 0
CLASSIFICATION_TYPE = U
NORAD_CAT_ID   = 65733
ELEMENT_SET_NO = 999
REV_AT_EPOCH   = 1410
BSTAR          = .12611153E-2
MEAN_MOTION_DOT = .217764E-2
MEAN_MOTION_DDOT = 0

CCSDS_OMM_VERS = 2.0
CREATION_DATE  = 
ORIGINATOR     = 

OBJECT_NAME    = YOTSUBA-KULOVER
OBJECT_ID      = 1998-067XN
CENTER_NAME    = EARTH
REF_FRAME      = TEME
TIME_SYSTEM    = UTC
MEAN_ELEMENT_THEORY = SGP/SGP4

EPOCH          = 2025-12-18T09:56:54.884832
MEAN_MOTION    = 15.60208015
ECCENTRICITY   = .00016606
INCLINATION    = 51.6285
RA_OF_ASC_NODE = 111.4386
ARG_OF_PERICENTER = 311.4961
MEAN_ANOMALY   = 48.5889

EPHEMERIS_TYPE = 0
CLASSIFICATION_TYPE = U
NORAD_CAT_ID   = 65941
ELEMENT_SET_NO = 999
REV_AT_EPOCH   = 1074
BSTAR          = .7945309E-3
MEAN_MOTION_DOT = .66041E-3
MEAN_MOTION_DDOT = 0

CCSDS_OMM_VERS = 2.0
CREATION_DATE  = 
ORIGINATOR     = 

OBJECT_NAME    = BOTAN
OBJECT_ID      = 1998-067XP
CENTER_NAME    = EARTH
REF_FRAME      = TEME
TIME_SYSTEM    = UTC
MEAN_ELEMENT_THEORY = SGP/SGP4

EPOCH          = 2025-12-18T09:45:54.006048
MEAN_MOTION    = 15.64050786
ECCENTRICITY   = .00028482
INCLINATION    = 51.6278
RA_OF_ASC_NODE = 110.6371
ARG_OF_PERICENTER = 287.2475
MEAN_ANOMALY   = 72.8208

EPHEMERIS_TYPE = 0
CLASSIFICATION_TYPE = U
NORAD_CAT_ID   = 65942
ELEMENT_SET_NO = 999
REV_AT_EPOCH   = 1075
BSTAR          = .10814457E-2
MEAN_MOTION_DOT = .105165E-2
MEAN_MOTION_DDOT = 0

CCSDS_OMM_VERS = 2.0
CREATION_DATE  = 
ORIGINATOR     = 

OBJECT_NAME    = E-KAGAKU-1
OBJECT_ID      = 1998-067XQ
CENTER_NAME    = EARTH
REF_FRAME      = TEME
TIME_SYSTEM    = UTC
MEAN_ELEMENT_THEORY = SGP/SGP4

EPOCH          = 2025-12-18T08:24:49.666176
MEAN_MOTION    = 15.60193795
ECCENTRICITY   = .00013451
INCLINATION    = 51.6302
RA_OF_ASC_NODE = 111.7666
ARG_OF_PERICENTER = 249.8249
MEAN_ANOMALY   = 110.2600

EPHEMERIS_TYPE = 0
CLASSIFICATION_TYPE = U
NORAD_CAT_ID   = 65943
ELEMENT_SET_NO = 999
REV_AT_EPOCH   = 1073
BSTAR          = .84619625E-3
MEAN_MOTION_DOT = .70368E-3
MEAN_MOTION_DDOT = 0

CCSDS_OMM_VERS = 2.0
CREATION_DATE  = 
ORIGINATOR     = 

OBJECT_NAME    = HTV-X1
OBJECT_ID      = 2025-241A
CENTER_NAME    = EARTH
REF_FRAME      = TEME
TIME_SYSTEM    = UTC
MEAN_ELEMENT_THEORY = SGP/SGP4

EPOCH          = 2025-12-18T12:55:40.164384
MEAN_MOTION    = 15.49652631
ECCENTRICITY   = .00031724
INCLINATION    = 51.6314
RA_OF_ASC_NODE = 113.7624
ARG_OF_PERICENTER = 267.0099
MEAN_ANOMALY   = 93.0526

EPHEMERIS_TYPE = 0
CLASSIFICATION_TYPE = U
NORAD_CAT_ID   = 66174
ELEMENT_SET_NO = 999
REV_AT_EPOCH   = 51
BSTAR          = .13939492E-3
MEAN_MOTION_DOT = .7413E-4
MEAN_MOTION_DDOT = 0

CCSDS_OMM_VERS = 2.0
CREATION_DATE  = 
ORIGINATOR     = 

OBJECT_NAME    = SHENZHOU-22
OBJECT_ID      = 2025-272A
CENTER_NAME    = EARTH
REF_FRAME      = TEME
TIME_SYSTEM    = UTC
MEAN_ELEMENT_THEORY = SGP/SGP4

EPOCH          = 2025-12-18T06:53:03.575616
MEAN_MOTION    = 15.59417882
ECCENTRICITY   = .00077258
INCLINATION    = 41.4683
RA_OF_ASC_NODE = 343.0261
ARG_OF_PERICENTER = 79.3286
MEAN_ANOMALY   = 280.8422

EPHEMERIS_TYPE = 0
CLASSIFICATION_TYPE = U
NORAD_CAT_ID   = 66645
ELEMENT_SET_NO = 999
REV_AT_EPOCH   = 26357
BSTAR          = .29030456E-3
MEAN_MOTION_DOT = .23377E-3
MEAN_MOTION_DDOT = 0

